ROW 0: [{"x":"5.56","t":"Enrolment No"},{"x":"11.09","t":"Roll No"},{"x":"18.41","t":"Name"},{"x":"24.52","t":"Total(30)"},{"x":"28.37","t":"Remarks"}]
ROW 1: [{"x":"5.61","t":"23010101088"},{"x":"11.59","t":"101"},{"x":"14.17","t":"Ghelani Vardhan Chetanbhai"},{"x":"25.40","t":"30"}]
ROW 2: [{"x":"5.61","t":"23010101133"},{"x":"11.59","t":"102"},{"x":"14.17","t":"Katba Kalp Maheshbhai"},{"x":"25.57","t":"0"},{"x":"27.62","t":"Non Placement"}]
ROW 3: [{"x":"5.61","t":"23010101150"},{"x":"11.59","t":"103"},{"x":"14.17","t":"Lalani Nandan Subhashbhai"},{"x":"25.40","t":"20"}]
ROW 4: [{"x":"5.61","t":"23010101217"},{"x":"11.59","t":"104"},{"x":"14.17","t":"Raichura Rag Bakulbhai"},{"x":"25.40","t":"25"}]
ROW 5: [{"x":"5.61","t":"23010101288"},{"x":"11.59","t":"105"},{"x":"14.17","t":"Vakhariya Abbasi Taherbhai"},{"x":"25.32","t":"7.5"}]
ROW 6: [{"x":"5.61","t":"24010101627"},{"x":"11.59","t":"106"},{"x":"14.17","t":"Dhol Rutvi"},{"x":"25.40","t":"10"}]
ROW 7: [{"x":"5.61","t":"24010101660"},{"x":"11.59","t":"107"},{"x":"14.17","t":"Makwana Nency Yogeshbhai"},{"x":"25.32","t":"7.5"}]
ROW 8: [{"x":"5.61","t":"24010101663"},{"x":"11.59","t":"108"},{"x":"14.17","t":"Mehta Mansee Manishkumar"},{"x":"25.57","t":"0"},{"x":"27.62","t":"Non Placement"}]
ROW 9: [{"x":"5.61","t":"24010101687"},{"x":"11.59","t":"109"},{"x":"14.17","t":"Sheth Honey Sanjiv"},{"x":"25.16","t":"12.5"}]
ROW 10: [{"x":"5.61","t":"23010101050"},{"x":"11.59","t":"110"},{"x":"14.17","t":"Chhatrala Devanshi Shaileshkumar"},{"x":"25.57","t":"0"},{"x":"28.70","t":"Absent"}]
ROW 11: [{"x":"5.61","t":"23010101069"},{"x":"11.59","t":"111"},{"x":"14.17","t":"Dodia Yashraj Ajitsinh"},{"x":"25.40","t":"15"}]
ROW 12: [{"x":"5.61","t":"23010101105"},{"x":"11.59","t":"112"},{"x":"14.17","t":"Jani Rishil Vipul"},{"x":"25.40","t":"15"}]
ROW 13: [{"x":"5.61","t":"23010101138"},{"x":"11.59","t":"113"},{"x":"14.17","t":"Keraliya Shreya Nileshkumar"},{"x":"25.40","t":"15"}]
ROW 14: [{"x":"5.61","t":"23010101143"},{"x":"11.59","t":"114"},{"x":"14.17","t":"Kopaniya Mitesh Amrutbhai"},{"x":"25.57","t":"0"}]
ROW 15: [{"x":"5.61","t":"23010101162"},{"x":"11.59","t":"115"},{"x":"14.17","t":"Marvadi Jaina Prashantbhai"},{"x":"25.57","t":"0"},{"x":"27.62","t":"Non Placement"}]
ROW 16: [{"x":"5.61","t":"23010101214"},{"x":"11.59","t":"116"},{"x":"14.17","t":"Rabadiya Preetkumar Jitendra"},{"x":"25.16","t":"12.5"}]
ROW 17: [{"x":"5.61","t":"23010101249"},{"x":"11.59","t":"117"},{"x":"14.17","t":"Shah Prem Nirajbhai"},{"x":"25.16","t":"12.5"}]
ROW 18: [{"x":"5.61","t":"23010101274"},{"x":"11.59","t":"118"},{"x":"14.17","t":"Trivedi Utsav Kishorbhai"},{"x":"25.32","t":"7.5"}]
ROW 19: [{"x":"5.61","t":"23010101314"},{"x":"11.59","t":"119"},{"x":"14.17","t":"Zezariya Jay Kamleshbhai"},{"x":"25.57","t":"5"}]
ROW 20: [{"x":"5.61","t":"23010101403"},{"x":"11.59","t":"120"},{"x":"14.17","t":"Bhensdadiya Avadh Vijaybhai"},{"x":"25.40","t":"15"}]
ROW 21: [{"x":"5.61","t":"23010101423"},{"x":"11.59","t":"121"},{"x":"14.17","t":"Parsaniya Rudra Hitesh"},{"x":"25.16","t":"17.5"}]
ROW 22: [{"x":"5.61","t":"24010101619"},{"x":"11.59","t":"122"},{"x":"14.17","t":"Cholera Vansh Dharmendra"},{"x":"25.40","t":"10"}]
ROW 23: [{"x":"5.61","t":"24010101667"},{"x":"11.59","t":"123"},{"x":"14.17","t":"Pan Yash Jayeshbhai"},{"x":"25.40","t":"10"}]
ROW 24: [{"x":"5.61","t":"24010101674"},{"x":"11.59","t":"124"},{"x":"14.17","t":"Pithva Premanshu Hareshbhai"},{"x":"25.40","t":"15"}]
ROW 25: [{"x":"5.61","t":"24010101677"},{"x":"11.59","t":"125"},{"x":"14.17","t":"Prashil Ramoliya"},{"x":"25.57","t":"0"},{"x":"28.70","t":"Absent"}]
ROW 26: [{"x":"5.61","t":"23010101295"},{"x":"11.59","t":"126"},{"x":"14.17","t":"Vegada Vishv Dimpalbhai"},{"x":"25.40","t":"10"}]
ROW 27: [{"x":"5.61","t":"22010101468"},{"x":"11.59","t":"127"},{"x":"14.17","t":"Nair Thejas Suresh"},{"x":"25.57","t":"0"},{"x":"28.70","t":"Absent"}]
ROW 28: [{"x":"5.61","t":"23010101013"},{"x":"11.59","t":"128"},{"x":"14.17","t":"Banugaria Sheet Hiteshbhai"},{"x":"25.57","t":"0"},{"x":"28.70","t":"Absent"}]
ROW 29: [{"x":"5.61","t":"23010101025"},{"x":"11.59","t":"129"},{"x":"14.17","t":"Bhensdadia Deep"},{"x":"25.57","t":"0"}]
ROW 0: [{"x":"5.61","t":"23010101232"},{"x":"11.59","t":"148"},{"x":"14.17","t":"Rajvi Mukeshbhai Sadatiya"},{"x":"25.57","t":"0"},{"x":"27.62","t":"Non Placement"}]
ROW 1: [{"x":"5.61","t":"23010101237"},{"x":"11.59","t":"149"},{"x":"14.17","t":"Sanandiya Brind Brijeshbhai"},{"x":"25.57","t":"0"},{"x":"27.62","t":"Non Placement"}]
ROW 2: [{"x":"5.61","t":"23010101238"},{"x":"11.59","t":"150"},{"x":"14.17","t":"Sanandiya Daksh Hareshbhai"},{"x":"25.40","t":"15"}]
ROW 3: [{"x":"5.61","t":"23010101240"},{"x":"11.59","t":"151"},{"x":"14.17","t":"Sanghani Bhumik Sanjaybhai"},{"x":"25.40","t":"15"}]
ROW 4: [{"x":"5.61","t":"23010101243"},{"x":"11.59","t":"152"},{"x":"14.17","t":"Saradva Dhrumil Prakashbhai"},{"x":"25.32","t":"7.5"}]
ROW 5: [{"x":"5.61","t":"23010101248"},{"x":"11.59","t":"153"},{"x":"14.17","t":"Shah Devang Deepakkumar"},{"x":"25.57","t":"0"},{"x":"27.62","t":"Non Placement"}]
ROW 6: [{"x":"5.61","t":"23010101252"},{"x":"11.59","t":"154"},{"x":"14.17","t":"Sidapara Dharmi Dineshbhai"},{"x":"25.57","t":"0"}]
ROW 7: [{"x":"5.61","t":"23010101255"},{"x":"11.59","t":"155"},{"x":"14.17","t":"Solanki Devkaran Kartikey"},{"x":"25.57","t":"0"},{"x":"27.62","t":"Non Placement"}]
ROW 8: [{"x":"5.61","t":"23010101279"},{"x":"11.59","t":"156"},{"x":"14.17","t":"Vadaliya Aashvi Rupeshbhai"},{"x":"25.57","t":"5"}]
ROW 9: [{"x":"5.61","t":"23010101280"},{"x":"11.59","t":"157"},{"x":"14.17","t":"Vadaviya Muskan Hanif"},{"x":"25.57","t":"5"}]
ROW 10: [{"x":"5.61","t":"23010101300"},{"x":"11.59","t":"158"},{"x":"14.17","t":"Viramgama Viken Kantilal"},{"x":"25.57","t":"0"},{"x":"28.70","t":"Absent"}]
ROW 11: [{"x":"5.61","t":"23010101304"},{"x":"11.59","t":"159"},{"x":"14.17","t":"Jinkal Vora"},{"x":"25.57","t":"0"}]
ROW 12: [{"x":"5.61","t":"23010101308"},{"x":"11.59","t":"160"},{"x":"14.17","t":"Manvendrasinh Balbhadrasinh Zala"},{"x":"25.57","t":"0"},{"x":"28.70","t":"Absent"}]
ROW 13: [{"x":"5.61","t":"23010101409"},{"x":"11.59","t":"161"},{"x":"14.17","t":"Ghetiya Misri Anjankumar"},{"x":"25.57","t":"0"}]
ROW 14: [{"x":"5.61","t":"23010101413"},{"x":"11.59","t":"162"},{"x":"14.17","t":"Kachrola Krishkumar Bhaveshbhai"},{"x":"25.57","t":"0"},{"x":"27.62","t":"Non Placement"}]
ROW 15: [{"x":"5.61","t":"23010101415"},{"x":"11.59","t":"163"},{"x":"14.17","t":"Kalaria Maan Utkal"},{"x":"25.57","t":"0"}]
ROW 16: [{"x":"5.61","t":"23010101421"},{"x":"11.59","t":"164"},{"x":"14.17","t":"Panesara Maharshi Nileshbhai"},{"x":"25.57","t":"0"},{"x":"28.70","t":"Absent"}]
ROW 17: [{"x":"5.61","t":"23010101426"},{"x":"11.59","t":"165"},{"x":"14.17","t":"Pipaliya Pujan Jitendrabhai"},{"x":"25.40","t":"15"}]
ROW 18: [{"x":"5.61","t":"23010101430"},{"x":"11.59","t":"166"},{"x":"14.17","t":"Sherasiya Gulamkasim Mohamadhanif"},{"x":"25.40","t":"10"}]
ROW 19: [{"x":"5.61","t":"23010101433"},{"x":"11.59","t":"167"},{"x":"14.17","t":"Zala Jayvardhansinh Pratapsinh"},{"x":"25.57","t":"0"}]
ROW 20: [{"x":"5.61","t":"23031701003"},{"x":"11.59","t":"168"},{"x":"14.17","t":"Badi Akib Ismailbhai"},{"x":"25.32","t":"2.5"}]
ROW 21: [{"x":"5.61","t":"24010101632"},{"x":"11.59","t":"169"},{"x":"14.17","t":"Gangwani Harshil Manohar"},{"x":"25.57","t":"5"}]
ROW 22: [{"x":"5.61","t":"24010101638"},{"x":"11.59","t":"170"},{"x":"14.17","t":"Jadeja Karmdeepsinh Hitendrasinh"},{"x":"25.40","t":"10"}]
ROW 23: [{"x":"5.61","t":"23031701022"},{"x":"11.59","t":"171"},{"x":"14.17","t":"Kadivar Mohamadsahil Yunus"},{"x":"25.57","t":"0"},{"x":"27.62","t":"Non Placement"}]
ROW 24: [{"x":"5.61","t":"23031701027"},{"x":"11.59","t":"172"},{"x":"14.17","t":"Khorajiya Mahir Mohamadsafi"},{"x":"25.57","t":"0"},{"x":"28.70","t":"Absent"}]
ROW 25: [{"x":"5.61","t":"23031701034"},{"x":"11.59","t":"173"},{"x":"14.17","t":"Meva Raxit Vinodbhai"},{"x":"25.32","t":"7.5"}]
ROW 26: [{"x":"5.61","t":"23031701052"},{"x":"11.59","t":"174"},{"x":"14.17","t":"Vansajaliya Helly Ashokbhai"},{"x":"25.57","t":"0"},{"x":"27.62","t":"Non Placement"}]
ROW 27: [{"x":"5.61","t":"24010101610"},{"x":"11.59","t":"175"},{"x":"14.17","t":"Bera Priya Manishbhai"},{"x":"25.32","t":"2.5"}]
ROW 28: [{"x":"5.61","t":"24010101612"},{"x":"11.59","t":"176"},{"x":"14.17","t":"Bhalodiya Hit Dilipbhai"},{"x":"25.57","t":"0"},{"x":"27.62","t":"Non Placement"}]
ROW 29: [{"x":"5.61","t":"24010101617"},{"x":"11.59","t":"177"},{"x":"14.17","t":"Jeel Chaniyara"},{"x":"25.57","t":"0"},{"x":"27.62","t":"Non Placement"}]
ROW 0: [{"x":"5.61","t":"23010101031"},{"x":"11.59","t":"302"},{"x":"14.17","t":"Bhimani Sujal Jagadishbhai"},{"x":"25.40","t":"20"}]
ROW 1: [{"x":"5.61","t":"23010101055"},{"x":"11.59","t":"303"},{"x":"14.17","t":"Taksh Dalvadi"},{"x":"25.16","t":"17.5"}]
ROW 2: [{"x":"5.61","t":"23010101073"},{"x":"11.59","t":"304"},{"x":"14.17","t":"Dudhatra Prince Bharatbhai"},{"x":"25.16","t":"12.5"}]
ROW 3: [{"x":"5.61","t":"23010101086"},{"x":"11.59","t":"305"},{"x":"14.17","t":"Gareja Abhishek Lalabhai"},{"x":"25.16","t":"17.5"}]
ROW 4: [{"x":"5.61","t":"23010101107"},{"x":"11.59","t":"306"},{"x":"14.17","t":"Jat Pooja Jagdish"},{"x":"25.57","t":"0"},{"x":"27.62","t":"Non Placement"}]
ROW 5: [{"x":"5.61","t":"23010101119"},{"x":"11.59","t":"307"},{"x":"14.17","t":"Kagathara Tanish Vipulbhai"},{"x":"25.16","t":"22.5"}]
ROW 6: [{"x":"5.61","t":"23010101120"},{"x":"11.59","t":"308"},{"x":"14.17","t":"Kakadiya Prince Yogeshbhai"},{"x":"25.40","t":"10"}]
ROW 7: [{"x":"5.61","t":"23010101129"},{"x":"11.59","t":"309"},{"x":"14.17","t":"Kargathiya Tusharkumar Jayantilal"},{"x":"25.32","t":"7.5"}]
ROW 8: [{"x":"5.61","t":"23010101158"},{"x":"11.59","t":"310"},{"x":"14.17","t":"Makwana Vanshita Mukeshbhai"},{"x":"25.16","t":"22.5"}]
ROW 9: [{"x":"5.61","t":"23010101207"},{"x":"11.59","t":"311"},{"x":"14.17","t":"Pindariya Nikunj Pala"},{"x":"25.16","t":"22.5"}]
ROW 10: [{"x":"5.61","t":"23010101250"},{"x":"11.59","t":"312"},{"x":"14.17","t":"Shalot Milan Manojkumar"},{"x":"25.40","t":"20"}]
ROW 11: [{"x":"5.61","t":"23010101268"},{"x":"11.59","t":"313"},{"x":"14.17","t":"Thaker Rutva Kalpeshbhai"},{"x":"25.40","t":"10"}]
ROW 12: [{"x":"5.61","t":"23010101294"},{"x":"11.59","t":"314"},{"x":"14.17","t":"Vegad Jay Dilipbhai"},{"x":"25.16","t":"12.5"}]
ROW 13: [{"x":"5.61","t":"23010101297"},{"x":"11.59","t":"315"},{"x":"14.17","t":"Vekariya Harsh Mukeshbhai"},{"x":"25.32","t":"7.5"}]
ROW 14: [{"x":"5.61","t":"23010101406"},{"x":"11.59","t":"316"},{"x":"14.17","t":"Dhamsaniya Smit Dipakbhai"},{"x":"25.40","t":"25"}]
ROW 15: [{"x":"5.61","t":"23031701001"},{"x":"11.59","t":"317"},{"x":"14.17","t":"Adesara Yesha Madhukarbhai"},{"x":"25.16","t":"12.5"}]
ROW 16: [{"x":"5.61","t":"23031701010"},{"x":"11.59","t":"318"},{"x":"14.17","t":"Bhuva Harsh Jagdishbhai"},{"x":"25.57","t":"5"}]
ROW 17: [{"x":"5.61","t":"23031701017"},{"x":"11.59","t":"319"},{"x":"14.17","t":"Gami Khushali Sanjaybhai"},{"x":"25.32","t":"2.5"}]
ROW 18: [{"x":"5.61","t":"23031701019"},{"x":"11.59","t":"320"},{"x":"14.17","t":"Hinsu Isha Rajeshbhai"},{"x":"25.16","t":"12.5"}]
ROW 19: [{"x":"5.61","t":"23031701021"},{"x":"11.59","t":"321"},{"x":"14.17","t":"Jakasaniya Yugal Maheshbhai"},{"x":"25.16","t":"12.5"}]
ROW 20: [{"x":"5.61","t":"23031701025"},{"x":"11.59","t":"322"},{"x":"14.17","t":"Kapuriya Aeshviben Jagdishbhai"},{"x":"25.16","t":"17.5"}]
ROW 21: [{"x":"5.61","t":"23031701033"},{"x":"11.59","t":"323"},{"x":"14.17","t":"Maru Riya Nileshbhai"},{"x":"25.16","t":"12.5"}]
ROW 22: [{"x":"5.61","t":"23031701037"},{"x":"11.59","t":"324"},{"x":"14.13","t":"Pansuriya Ayushkumar Dharmendrabhai"},{"x":"25.40","t":"15"}]
ROW 23: [{"x":"5.61","t":"23031701038"},{"x":"11.59","t":"325"},{"x":"14.17","t":"Parmar Prince Dilipbhai"},{"x":"25.57","t":"5"}]
ROW 24: [{"x":"5.61","t":"23031701039"},{"x":"11.59","t":"326"},{"x":"14.17","t":"Patel Prinsi Bhudarbhai"},{"x":"25.57","t":"0"}]
ROW 25: [{"x":"5.61","t":"23031701042"},{"x":"11.59","t":"327"},{"x":"14.17","t":"Pithadiya Vatsal Vijaybhai"},{"x":"25.57","t":"0"}]
ROW 26: [{"x":"5.61","t":"23031701043"},{"x":"11.59","t":"328"},{"x":"14.17","t":"Popat Jaydeep Manojbhai"},{"x":"25.40","t":"20"}]
ROW 27: [{"x":"5.61","t":"23031701045"},{"x":"11.59","t":"329"},{"x":"14.17","t":"Ranpariya Isha Sanjaybhai"},{"x":"25.40","t":"15"}]
ROW 28: [{"x":"5.61","t":"23031701048"},{"x":"11.59","t":"330"},{"x":"14.17","t":"Sherasiya Tahesin Ismailbhai"},{"x":"25.57","t":"5"}]
ROW 29: [{"x":"5.61","t":"23031701049"},{"x":"11.59","t":"331"},{"x":"14.17","t":"Sidpara Shweta Shaileshbhai"},{"x":"25.16","t":"12.5"}]
ROW 0: [{"x":"5.61","t":"23010101064"},{"x":"11.59","t":"352"},{"x":"14.17","t":"Dhandhukiya Keval Vinodbhai"},{"x":"25.16","t":"12.5"}]
ROW 1: [{"x":"5.61","t":"23010101068"},{"x":"11.59","t":"353"},{"x":"14.17","t":"Dobariya Happy Bhaveshbhai"},{"x":"25.57","t":"0"}]
ROW 2: [{"x":"5.61","t":"23010101090"},{"x":"11.59","t":"354"},{"x":"14.17","t":"Gohil Priyanshiba Pradipsinh"},{"x":"25.57","t":"0"},{"x":"27.62","t":"Non Placement"}]
ROW 3: [{"x":"5.61","t":"23010101093"},{"x":"11.59","t":"355"},{"x":"14.17","t":"Gondaliya Jigar Pareshbhai"},{"x":"25.57","t":"0"},{"x":"27.62","t":"Non Placement"}]
ROW 4: [{"x":"5.61","t":"23010101098"},{"x":"11.59","t":"356"},{"x":"14.17","t":"Hirpara Harmi Bhaveshbhai"},{"x":"25.57","t":"0"}]
ROW 5: [{"x":"5.61","t":"23010101099"},{"x":"11.59","t":"357"},{"x":"14.17","t":"Jadav Sahil Maheshbhai"},{"x":"25.32","t":"2.5"}]
ROW 6: [{"x":"5.61","t":"23010101100"},{"x":"11.59","t":"358"},{"x":"14.17","t":"Jadeja Jayrajsinh Sanjaysinh"},{"x":"25.57","t":"0"},{"x":"28.70","t":"Absent"}]
ROW 7: [{"x":"5.61","t":"23010101102"},{"x":"11.59","t":"359"},{"x":"14.17","t":"Jadeja Yashrajsinh Majabutsinh"},{"x":"25.16","t":"17.5"}]
ROW 8: [{"x":"5.61","t":"23010101106"},{"x":"11.59","t":"360"},{"x":"14.17","t":"Jariya Harsh Rajeshbhai"},{"x":"25.32","t":"2.5"}]
ROW 9: [{"x":"5.61","t":"23010101113"},{"x":"11.59","t":"361"},{"x":"14.17","t":"Joshi Jaimish Narendrabhai"},{"x":"25.32","t":"7.5"}]
ROW 10: [{"x":"5.61","t":"23010101114"},{"x":"11.59","t":"362"},{"x":"14.17","t":"Joshi Kavyam Vimalkumar"},{"x":"25.16","t":"12.5"}]
ROW 11: [{"x":"5.61","t":"23010101123"},{"x":"11.59","t":"363"},{"x":"14.17","t":"Kamani Disha Rajeshbhai"},{"x":"25.32","t":"2.5"}]
ROW 12: [{"x":"5.61","t":"23010101128"},{"x":"11.59","t":"364"},{"x":"14.17","t":"Kansagra Monil Sanjaybhai"},{"x":"25.40","t":"15"}]
ROW 13: [{"x":"5.61","t":"23010101136"},{"x":"11.59","t":"365"},{"x":"14.17","t":"Kavar Rutvi Jagjivanbhai"},{"x":"25.16","t":"12.5"}]
ROW 14: [{"x":"5.61","t":"23010101139"},{"x":"11.59","t":"366"},{"x":"14.17","t":"Khachar Nivkumar Girishkumar"},{"x":"25.16","t":"17.5"}]
ROW 15: [{"x":"5.61","t":"23010101142"},{"x":"11.59","t":"367"},{"x":"14.17","t":"Khunt Smit Vipulbhai"},{"x":"25.16","t":"12.5"}]
ROW 16: [{"x":"5.61","t":"23010101148"},{"x":"11.59","t":"368"},{"x":"14.17","t":"Kumbhani Meet Ashokbhai"},{"x":"25.32","t":"7.5"}]
ROW 17: [{"x":"5.61","t":"23010101149"},{"x":"11.59","t":"369"},{"x":"14.17","t":"Kundaliya Nishit Gautambhai"},{"x":"25.32","t":"7.5"}]
ROW 18: [{"x":"5.61","t":"23010101157"},{"x":"11.59","t":"370"},{"x":"14.17","t":"Makwana Rajesh Karshanbhai"},{"x":"25.40","t":"10"}]
ROW 19: [{"x":"5.61","t":"23010101168"},{"x":"11.59","t":"371"},{"x":"14.17","t":"Mendapara Krina Atulbhai"},{"x":"25.40","t":"10"}]
ROW 20: [{"x":"5.61","t":"23010101170"},{"x":"11.59","t":"372"},{"x":"14.17","t":"Modi Pratham Rajesh"},{"x":"25.16","t":"17.5"}]
ROW 21: [{"x":"5.61","t":"23010101172"},{"x":"11.59","t":"373"},{"x":"14.17","t":"Nadiyapara Jatin Shailesh"},{"x":"25.57","t":"5"}]
ROW 22: [{"x":"5.61","t":"23010101175"},{"x":"11.59","t":"374"},{"x":"14.17","t":"Nenuji Neeldhvaj Mansbhai"},{"x":"25.16","t":"22.5"}]
ROW 23: [{"x":"5.61","t":"23010101187"},{"x":"11.59","t":"375"},{"x":"14.17","t":"Parmar Ayush Sanjaybhai"},{"x":"25.32","t":"2.5"}]
ROW 24: [{"x":"5.61","t":"23010101188"},{"x":"11.59","t":"376"},{"x":"14.17","t":"Parmar Haril Gautambhai"},{"x":"25.40","t":"15"}]
ROW 25: [{"x":"5.61","t":"23010101190"},{"x":"11.59","t":"377"},{"x":"14.17","t":"Parmar Kaushik Pravinbhai"},{"x":"25.16","t":"27.5"}]
ROW 26: [{"x":"5.61","t":"23010101193"},{"x":"11.59","t":"378"},{"x":"14.17","t":"Parmar Nency Udaybhai"},{"x":"25.16","t":"17.5"}]
ROW 27: [{"x":"5.61","t":"23010101202"},{"x":"11.59","t":"379"},{"x":"14.17","t":"Khushiben Patel"},{"x":"25.40","t":"25"}]
ROW 28: [{"x":"5.61","t":"23010101208"},{"x":"11.59","t":"380"},{"x":"14.17","t":"Pipalava Yash Girishkumar"},{"x":"25.40","t":"10"}]
ROW 29: [{"x":"5.61","t":"23010101210"},{"x":"11.59","t":"381"},{"x":"14.17","t":"Pipariya Sumit Bhaveshbhai"},{"x":"25.40","t":"15"}]
ROW 0: [{"x":"5.61","t":"23010101402"},{"x":"11.59","t":"402"},{"x":"14.17","t":"Baraiya Jay Bharatbhai"},{"x":"25.40","t":"20"}]
ROW 1: [{"x":"5.61","t":"23010101424"},{"x":"11.59","t":"403"},{"x":"14.17","t":"Patel Jenil Vimalbhai"},{"x":"25.40","t":"20"}]
ROW 2: [{"x":"5.61","t":"23010101428"},{"x":"11.59","t":"404"},{"x":"14.17","t":"Raiyani Maitri Bharatbhai"},{"x":"25.57","t":"0"}]
ROW 3: [{"x":"5.61","t":"23010101431"},{"x":"11.59","t":"405"},{"x":"14.17","t":"Sorathiya Raj Kamleshbhai"},{"x":"25.57","t":"0"}]
ROW 4: [{"x":"5.61","t":"23010101434"},{"x":"11.59","t":"406"},{"x":"14.17","t":"Zalariya Parth Dipakbhai"},{"x":"25.57","t":"0"},{"x":"28.70","t":"Absent"}]
ROW 5: [{"x":"5.61","t":"23031701007"},{"x":"11.59","t":"407"},{"x":"14.17","t":"Bhalodiya Prince Nileshbhai"},{"x":"25.40","t":"20"}]
ROW 6: [{"x":"5.61","t":"23031701009"},{"x":"11.59","t":"408"},{"x":"14.17","t":"Bhoraniya Vishva Chandrakantbhai"},{"x":"25.40","t":"15"}]
ROW 7: [{"x":"5.61","t":"23031701024"},{"x":"11.59","t":"409"},{"x":"14.17","t":"Kagathara Shubham Kishorbhai"},{"x":"25.32","t":"2.5"}]
ROW 8: [{"x":"5.61","t":"23031701028"},{"x":"11.59","t":"410"},{"x":"14.17","t":"Kodiya Dishaben Vallabhabhai"},{"x":"25.16","t":"27.5"}]
ROW 9: [{"x":"5.61","t":"23031701032"},{"x":"11.59","t":"411"},{"x":"14.17","t":"Mandora Nirali Prakashbhai"},{"x":"25.57","t":"5"}]
ROW 10: [{"x":"5.61","t":"23031701035"},{"x":"11.59","t":"412"},{"x":"14.17","t":"Panara Ashaniben Ashokbhai"},{"x":"25.40","t":"20"}]
ROW 11: [{"x":"5.61","t":"23031701046"},{"x":"11.59","t":"413"},{"x":"14.17","t":"Rupareliya Devanshi Amitbhai"},{"x":"25.16","t":"12.5"}]
ROW 12: [{"x":"5.61","t":"24010101611"},{"x":"11.59","t":"414"},{"x":"14.17","t":"Bhadeshiya Jay Chandreshbhai"},{"x":"25.32","t":"7.5"}]
ROW 13: [{"x":"5.61","t":"24010101614"},{"x":"11.59","t":"415"},{"x":"14.17","t":"Botadara Deep Milanbhai"},{"x":"25.40","t":"20"}]
ROW 14: [{"x":"5.61","t":"24010101620"},{"x":"11.59","t":"416"},{"x":"14.17","t":"Chotara Anshil Rajeshbhai"},{"x":"25.40","t":"10"}]
ROW 15: [{"x":"5.61","t":"24010101641"},{"x":"11.59","t":"417"},{"x":"14.17","t":"Javiya Abhay Hareshbhai"},{"x":"25.16","t":"17.5"}]
ROW 16: [{"x":"5.61","t":"24010101642"},{"x":"11.59","t":"418"},{"x":"14.17","t":"Javiya Dhanvi Dhirubhai"},{"x":"25.40","t":"10"}]
ROW 17: [{"x":"5.61","t":"24010101644"},{"x":"11.59","t":"419"},{"x":"14.17","t":"Joshi Krushant Nitinkumar"},{"x":"25.32","t":"7.5"}]
ROW 18: [{"x":"5.61","t":"24010101650"},{"x":"11.59","t":"420"},{"x":"14.17","t":"Khunt Pratikkumar Hiteshbhai"},{"x":"25.16","t":"12.5"}]
ROW 19: [{"x":"5.61","t":"23010101241"},{"x":"11.59","t":"421"},{"x":"14.17","t":"Santoki Diya Bhaveshbhai"},{"x":"25.40","t":"15"}]
ROW 20: [{"x":"5.61","t":"24010101652"},{"x":"11.59","t":"422"},{"x":"14.17","t":"Koradiya Isha Vithalbhai"},{"x":"25.32","t":"2.5"}]
ROW 21: [{"x":"5.61","t":"24010101662"},{"x":"11.59","t":"423"},{"x":"14.17","t":"Mansuriya Vishwa Ajitbhai"},{"x":"25.57","t":"0"}]
ROW 22: [{"x":"5.61","t":"24010101670"},{"x":"11.59","t":"424"},{"x":"14.17","t":"Parmar Ruchita Lalitkumar"},{"x":"25.57","t":"0"}]
ROW 23: [{"x":"5.61","t":"24010101672"},{"x":"11.59","t":"425"},{"x":"14.17","t":"Parmar Vivek Rameshbhai"},{"x":"25.40","t":"15"}]
ROW 24: [{"x":"5.61","t":"24010101678"},{"x":"11.59","t":"426"},{"x":"14.17","t":"Rana Mitrajsinh Bhagirathsinh"},{"x":"25.16","t":"12.5"}]
ROW 25: [{"x":"5.61","t":"24010101694"},{"x":"11.59","t":"427"},{"x":"14.17","t":"Karan Sonagara"},{"x":"25.32","t":"2.5"}]
ROW 26: [{"x":"5.61","t":"24010101698"},{"x":"11.59","t":"428"},{"x":"14.17","t":"Thumar Heet Rajnikant"},{"x":"25.40","t":"15"}]
ROW 27: [{"x":"5.61","t":"24010101700"},{"x":"11.59","t":"429"},{"x":"14.17","t":"Ukani Umangkumar Jiteshbhai"},{"x":"25.40","t":"20"}]
ROW 28: [{"x":"5.61","t":"24010101706"},{"x":"11.59","t":"430"},{"x":"14.17","t":"Vaghela Nakul Hemantbhai"},{"x":"25.16","t":"12.5"}]
ROW 29: [{"x":"5.61","t":"24010101903"},{"x":"11.59","t":"431"},{"x":"14.17","t":"Vasani Jenisa Kalubhai"},{"x":"25.57","t":"5"}]
ROW 0: [{"x":"5.61","t":"23010101427"},{"x":"11.59","t":"452"},{"x":"14.17","t":"Rachchh Shubham Bhaveshbhai"},{"x":"25.40","t":"10"}]
ROW 1: [{"x":"5.61","t":"23031701023"},{"x":"11.59","t":"453"},{"x":"14.17","t":"Kadivar Samanbanu Abdulrahim"},{"x":"25.16","t":"17.5"}]
ROW 2: [{"x":"5.61","t":"24010101603"},{"x":"11.59","t":"454"},{"x":"14.17","t":"Aghera Riya Mukeshbhai"},{"x":"25.57","t":"5"}]
ROW 3: [{"x":"5.61","t":"24010101608"},{"x":"11.59","t":"455"},{"x":"14.17","t":"Badi Safin Najarudin"},{"x":"25.57","t":"0"}]
ROW 4: [{"x":"5.61","t":"23010101226"},{"x":"11.59","t":"456"},{"x":"14.17","t":"Rathod Drashti Jaysinhbhai"},{"x":"25.57","t":"0"},{"x":"28.70","t":"Absent"}]
ROW 5: [{"x":"5.61","t":"24010101630"},{"x":"11.59","t":"457"},{"x":"14.17","t":"Doshi Bhavya"},{"x":"25.57","t":"0"}]
ROW 6: [{"x":"5.61","t":"24010101659"},{"x":"11.59","t":"458"},{"x":"14.17","t":"Makwana Khush Kiranbhai"},{"x":"25.57","t":"5"}]
ROW 7: [{"x":"5.61","t":"23010101244"},{"x":"11.59","t":"459"},{"x":"14.17","t":"Sardhara Manasvi Sandipbhai"},{"x":"25.32","t":"7.5"}]
ROW 8: [{"x":"5.61","t":"24010101601"},{"x":"11.59","t":"460"},{"x":"14.17","t":"Adesara Preet Snehalkumar"},{"x":"25.57","t":"0"}]
ROW 9: [{"x":"5.61","t":"24010101658"},{"x":"11.59","t":"461"},{"x":"14.17","t":"Lotia Dhruvi Shailesh"},{"x":"25.57","t":"0"}]
ROW 10: [{"x":"5.61","t":"23010101080"},{"x":"11.59","t":"462"},{"x":"14.17","t":"Gajipara Arpit Bharatbhai"},{"x":"25.57","t":"0"}]
ROW 11: [{"x":"5.61","t":"24010101664"},{"x":"11.59","t":"463"},{"x":"14.17","t":"Mehta Pratik Jigneshbhai"},{"x":"25.32","t":"2.5"}]
ROW 12: [{"x":"5.61","t":"24010101613"},{"x":"11.59","t":"464"},{"x":"14.17","t":"Bhas Farhan Manjurbhai"},{"x":"25.57","t":"0"}]
ROW 13: [{"x":"5.61","t":"24010101622"},{"x":"11.59","t":"465"},{"x":"14.17","t":"Dedania Prem Nikhilbhai"},{"x":"25.57","t":"0"}]
ROW 14: [{"x":"5.61","t":"24010101623"},{"x":"11.59","t":"466"},{"x":"14.17","t":"Dedania Prit Nikhilbhai"},{"x":"25.57","t":"5"}]
ROW 15: [{"x":"5.61","t":"24010101628"},{"x":"11.59","t":"467"},{"x":"14.17","t":"Dobariya Viraj Hareshbhai"},{"x":"25.57","t":"0"}]
ROW 16: [{"x":"5.61","t":"24010101629"},{"x":"11.59","t":"468"},{"x":"14.17","t":"Dodiya Dhanashree Dineshbhai"},{"x":"25.32","t":"2.5"}]
ROW 17: [{"x":"5.61","t":"24010101646"},{"x":"11.59","t":"469"},{"x":"14.17","t":"Kalola Devang Sureshbhai"},{"x":"25.57","t":"5"}]
ROW 18: [{"x":"5.61","t":"24010101661"},{"x":"11.59","t":"470"},{"x":"14.13","t":"Manasiya Mohammadshahid Najarhushen"},{"x":"25.57","t":"0"},{"x":"28.70","t":"Absent"}]
ROW 19: [{"x":"5.61","t":"24010101684"},{"x":"11.59","t":"471"},{"x":"14.17","t":"Sapariya Vishva Vipulbhai"},{"x":"25.57","t":"5"}]
ROW 20: [{"x":"5.61","t":"24010101689"},{"x":"11.59","t":"472"},{"x":"14.17","t":"Sinojiya Selja Sandipbhai"},{"x":"25.57","t":"5"}]
ROW 21: [{"x":"5.61","t":"24010101693"},{"x":"11.59","t":"473"},{"x":"14.17","t":"Solanki Vanraj Dineshbhai"},{"x":"25.57","t":"0"}]
ROW 22: [{"x":"5.61","t":"24010101699"},{"x":"11.59","t":"474"},{"x":"14.17","t":"Thummar Henil Ketanbhai"},{"x":"25.32","t":"2.5"}]
ROW 23: [{"x":"5.61","t":"24010101704"},{"x":"11.59","t":"475"},{"x":"14.17","t":"Vaghasiya Jinal Harsukhbhai"},{"x":"25.40","t":"20"}]
ROW 24: [{"x":"5.61","t":"24010101705"},{"x":"11.59","t":"476"},{"x":"14.17","t":"Vaghasiya Khushi Jaysukhbhai"},{"x":"25.57","t":"0"}]
ROW 25: [{"x":"5.61","t":"24010101655"},{"x":"11.59","t":"477"},{"x":"14.17","t":"Kunkana Binal Ashwinbhai"},{"x":"25.57","t":"5"}]
ROW 26: [{"x":"5.61","t":"23010101186"},{"x":"11.59","t":"478"},{"x":"14.17","t":"Pandya Piyanshu Amitchandra"},{"x":"25.40","t":"20"}]
ROW 27: [{"x":"5.61","t":"23010101004"},{"x":"11.59","t":"479"},{"x":"14.17","t":"Ajagia Bansi Chetanbhai"},{"x":"25.32","t":"2.5"}]
ROW 28: [{"x":"5.61","t":"23010101022"},{"x":"11.59","t":"480"},{"x":"14.17","t":"Bhanderi Prince Vijaybhai"},{"x":"25.16","t":"17.5"}]
ROW 29: [{"x":"5.61","t":"23010101035"},{"x":"11.59","t":"481"},{"x":"14.17","t":"Boda Princekumar Hasmukhbhai"},{"x":"25.40","t":"25"}]
ROW 0: [{"x":"5.61","t":"24010101640"},{"x":"11.59","t":"502"},{"x":"14.17","t":"Jat Karan Pratapbhai"},{"x":"25.57","t":"0"}]
ROW 1: [{"x":"5.61","t":"24010101681"},{"x":"11.59","t":"503"},{"x":"14.17","t":"Rathod Vaibhav Hirenbhai"},{"x":"25.57","t":"0"}]
ROW 2: [{"x":"5.61","t":"24010101692"},{"x":"11.59","t":"504"},{"x":"14.17","t":"Solanki Karan Pareshbhai"},{"x":"25.57","t":"0"},{"x":"28.70","t":"Absent"}]
ROW 3: [{"x":"5.61","t":"23010101018"},{"x":"11.59","t":"505"},{"x":"14.17","t":"Bhalala Tisha Ashokbhai"},{"x":"25.57","t":"0"},{"x":"28.70","t":"Absent"}]
ROW 4: [{"x":"5.61","t":"23010101137"},{"x":"11.59","t":"506"},{"x":"14.17","t":"Kavathiya Khushi Bhaveshbhai"},{"x":"25.32","t":"7.5"}]
ROW 5: [{"x":"5.61","t":"23010101166"},{"x":"11.59","t":"507"},{"x":"14.17","t":"Mehta Parshva Kalpesh"},{"x":"25.16","t":"17.5"}]
ROW 6: [{"x":"5.61","t":"23010101185"},{"x":"11.59","t":"508"},{"x":"14.17","t":"Panchasara Raj Hasmukhrai"},{"x":"25.40","t":"25"}]
ROW 7: [{"x":"5.61","t":"23010101230"},{"x":"11.59","t":"509"},{"x":"14.17","t":"Roshiya Rahul Pravinbhai"},{"x":"25.40","t":"25"}]
ROW 8: [{"x":"5.61","t":"23010101405"},{"x":"11.59","t":"510"},{"x":"14.17","t":"Desai Isha Jayeshbhai"},{"x":"25.40","t":"10"}]
ROW 9: [{"x":"5.61","t":"23010101412"},{"x":"11.59","t":"511"},{"x":"14.17","t":"Javiya Bansi Ashokbhai"},{"x":"25.40","t":"15"}]
ROW 10: [{"x":"5.61","t":"23031701012"},{"x":"11.59","t":"512"},{"x":"14.17","t":"Chauhan Sarthak Sureshbhai"},{"x":"25.16","t":"12.5"}]
ROW 11: [{"x":"5.61","t":"24010101609"},{"x":"11.59","t":"513"},{"x":"14.17","t":"Shyam Badiyani"},{"x":"25.57","t":"0"}]
ROW 12: [{"x":"5.61","t":"24010101626"},{"x":"11.59","t":"514"},{"x":"14.17","t":"Dhamsaniya Nensiben Nileshbhai"},{"x":"25.57","t":"5"}]
ROW 13: [{"x":"5.61","t":"24010101635"},{"x":"11.59","t":"515"},{"x":"14.17","t":"Gohil Vishwajitsinh Jagdishsinh"},{"x":"25.40","t":"10"}]
ROW 14: [{"x":"5.61","t":"23010101002"},{"x":"11.59","t":"516"},{"x":"14.17","t":"Dharvi Mehulkumar Adthakkar"},{"x":"25.16","t":"27.5"}]
ROW 15: [{"x":"5.61","t":"23010101033"},{"x":"11.59","t":"517"},{"x":"14.17","t":"Bhut Om Nileshbhai"},{"x":"25.40","t":"20"}]
ROW 16: [{"x":"5.61","t":"24010101685"},{"x":"11.59","t":"518"},{"x":"14.17","t":"Sapariya Yash Harilal"},{"x":"25.32","t":"2.5"}]
ROW 17: [{"x":"5.61","t":"24010101701"},{"x":"11.59","t":"519"},{"x":"14.17","t":"Vachhani Sneh Kiranbhai"},{"x":"25.57","t":"0"}]
ROW 18: [{"x":"5.61","t":"23010101012"},{"x":"11.59","t":"601"},{"x":"14.17","t":"Bamnoliya Mahek Rakeshbhai"},{"x":"25.40","t":"20"}]
ROW 19: [{"x":"5.61","t":"23010101059"},{"x":"11.59","t":"602"},{"x":"14.17","t":"Detroja Manan Pravinbhai"},{"x":"25.57","t":"0"},{"x":"28.70","t":"Absent"}]
ROW 20: [{"x":"5.61","t":"23010101072"},{"x":"11.59","t":"603"},{"x":"14.17","t":"Dudhagara Atmik Pashvinbhai"},{"x":"25.16","t":"17.5"}]
ROW 21: [{"x":"5.61","t":"23010101077"},{"x":"11.59","t":"604"},{"x":"14.17","t":"Faldu Rashi Nimeshbhai"},{"x":"25.57","t":"0"},{"x":"27.62","t":"Non Placement"}]
ROW 22: [{"x":"5.61","t":"23010101159"},{"x":"11.59","t":"605"},{"x":"14.17","t":"Maradia Ayush Jigneshbhai"},{"x":"25.16","t":"12.5"}]
ROW 23: [{"x":"5.61","t":"23010101204"},{"x":"11.59","t":"606"},{"x":"14.17","t":"Patel Riya Nikunjbhai"},{"x":"25.57","t":"5"}]
ROW 24: [{"x":"5.61","t":"23010101211"},{"x":"11.59","t":"607"},{"x":"14.17","t":"Prabhakar Dhvani Sanjay"},{"x":"25.40","t":"20"}]
ROW 25: [{"x":"5.61","t":"23010101218"},{"x":"11.59","t":"608"},{"x":"14.17","t":"Raiyani Rushi Bhaveshbhai"},{"x":"25.40","t":"30"}]
ROW 26: [{"x":"5.61","t":"23010101306"},{"x":"11.59","t":"609"},{"x":"14.17","t":"Zala Dhruvrajsinh Chhatrasinh"},{"x":"25.16","t":"17.5"}]
ROW 27: [{"x":"5.61","t":"23010101310"},{"x":"11.59","t":"610"},{"x":"14.17","t":"Prakirti Zalariya"},{"x":"25.16","t":"12.5"}]
ROW 28: [{"x":"5.61","t":"23010101425"},{"x":"11.59","t":"611"},{"x":"14.17","t":"Pattani Varun Kiran"},{"x":"25.40","t":"20"}]
ROW 29: [{"x":"5.61","t":"23031701004"},{"x":"11.59","t":"612"},{"x":"14.17","t":"Baru Priyanshi Yogesh"},{"x":"25.40","t":"10"}]
ROW 0: [{"x":"5.61","t":"23010101009"},{"x":"11.59","t":"633"},{"x":"14.17","t":"Andani Renish Maheshbhai"},{"x":"25.16","t":"17.5"}]
ROW 1: [{"x":"5.61","t":"23010101010"},{"x":"11.59","t":"634"},{"x":"14.17","t":"Andrapiya Disha Ashokkumar"},{"x":"25.16","t":"12.5"}]
ROW 2: [{"x":"5.61","t":"23010101014"},{"x":"11.59","t":"635"},{"x":"14.17","t":"Baraiya Vishalbhai Vijaybhai"},{"x":"25.40","t":"25"}]
ROW 3: [{"x":"5.61","t":"23010101016"},{"x":"11.59","t":"636"},{"x":"14.17","t":"Bhagiya Rutvik Rameshbhai"},{"x":"25.40","t":"20"}]
ROW 4: [{"x":"5.61","t":"23010101017"},{"x":"11.59","t":"637"},{"x":"14.17","t":"Bhagiya Vidisha Hareshbhai"},{"x":"25.57","t":"0"}]
ROW 5: [{"x":"5.61","t":"23010101019"},{"x":"11.59","t":"638"},{"x":"14.17","t":"Bhalani Het Rameshkumar"},{"x":"25.40","t":"20"}]
ROW 6: [{"x":"5.61","t":"23010101023"},{"x":"11.59","t":"639"},{"x":"14.17","t":"Bhatt Dhairya Pareshbhai"},{"x":"25.40","t":"15"}]
ROW 7: [{"x":"5.61","t":"23010101024"},{"x":"11.59","t":"640"},{"x":"14.17","t":"Bhatti Mahek Jigneshbhai"},{"x":"25.32","t":"2.5"}]
ROW 8: [{"x":"5.61","t":"23010101030"},{"x":"11.59","t":"641"},{"x":"14.17","t":"Bhimani Riyaben Chandrakantbhai"},{"x":"25.16","t":"22.5"}]
ROW 9: [{"x":"5.61","t":"23010101045"},{"x":"11.59","t":"642"},{"x":"14.17","t":"Chauhan Jasmin Rajeshbhai"},{"x":"25.40","t":"15"}]
ROW 10: [{"x":"5.61","t":"23010101046"},{"x":"11.59","t":"643"},{"x":"14.17","t":"Chauhan Pruthviraj Bhaveshbhai"},{"x":"25.40","t":"20"}]
ROW 11: [{"x":"5.61","t":"23010101048"},{"x":"11.59","t":"644"},{"x":"14.17","t":"Rudra Chavda"},{"x":"25.40","t":"10"}]
ROW 12: [{"x":"5.61","t":"23010101051"},{"x":"11.59","t":"645"},{"x":"14.17","t":"Chotai Dhruv Kamleshbhai"},{"x":"25.16","t":"27.5"}]
ROW 13: [{"x":"5.61","t":"23010101052"},{"x":"11.59","t":"646"},{"x":"14.17","t":"Priyanshu Choudhary"},{"x":"25.40","t":"15"}]
ROW 14: [{"x":"5.61","t":"23010101054"},{"x":"11.59","t":"647"},{"x":"14.17","t":"Dafda Disha Ketanbhai"},{"x":"25.16","t":"17.5"}]
ROW 15: [{"x":"5.61","t":"23010101058"},{"x":"11.59","t":"648"},{"x":"14.17","t":"Desai Jineesh Shaileshkumar"},{"x":"25.16","t":"22.5"}]
ROW 16: [{"x":"5.61","t":"23010101067"},{"x":"11.59","t":"649"},{"x":"14.17","t":"Dev Dobariya"},{"x":"25.40","t":"30"}]
ROW 17: [{"x":"5.61","t":"23010101075"},{"x":"11.59","t":"650"},{"x":"14.17","t":"Dhairya Jayeshbhai Dudkiya"},{"x":"25.16","t":"17.5"}]
ROW 18: [{"x":"5.61","t":"23010101076"},{"x":"11.59","t":"651"},{"x":"14.17","t":"Faldu Aum Prashantbhai"},{"x":"25.40","t":"25"}]
ROW 19: [{"x":"5.61","t":"23010101079"},{"x":"11.59","t":"652"},{"x":"14.17","t":"Fatepara Mansiben Kishorbhai"},{"x":"25.40","t":"10"}]
ROW 20: [{"x":"5.61","t":"23010101083"},{"x":"11.59","t":"653"},{"x":"14.17","t":"Ganatra Devansh Bharatbhai"},{"x":"25.40","t":"20"}]
ROW 21: [{"x":"5.61","t":"23010101084"},{"x":"11.59","t":"654"},{"x":"14.17","t":"Gangani Komal Manishbhai"},{"x":"25.16","t":"17.5"}]
ROW 22: [{"x":"5.61","t":"23010101089"},{"x":"11.59","t":"655"},{"x":"14.17","t":"Gohel Neel Hiteshbhai"},{"x":"25.40","t":"20"}]
ROW 23: [{"x":"5.61","t":"23010101092"},{"x":"11.59","t":"656"},{"x":"14.17","t":"Gojiya Jagrutiben Jeshabhai"},{"x":"25.40","t":"15"}]
ROW 24: [{"x":"5.61","t":"23010101097"},{"x":"11.59","t":"657"},{"x":"14.17","t":"Halani Darshan Miteshbhai"},{"x":"25.40","t":"20"}]
ROW 25: [{"x":"5.61","t":"23010101101"},{"x":"11.59","t":"658"},{"x":"14.17","t":"Jadeja Shivangiba Narendrasinh"},{"x":"25.16","t":"12.5"}]
ROW 26: [{"x":"5.61","t":"23010101109"},{"x":"11.59","t":"659"},{"x":"14.17","t":"Jivani Anjali Vasantbhai"},{"x":"25.40","t":"20"}]
ROW 27: [{"x":"5.61","t":"23010101111"},{"x":"11.59","t":"660"},{"x":"14.17","t":"Jogia Kairavi Rupesh"},{"x":"25.57","t":"0"},{"x":"27.62","t":"Non Placement"}]
ROW 28: [{"x":"5.61","t":"23010101116"},{"x":"11.59","t":"661"},{"x":"14.17","t":"Jotaniya Meet Sureshbhai"},{"x":"25.16","t":"22.5"}]
ROW 29: [{"x":"5.61","t":"23010101117"},{"x":"11.59","t":"662"},{"x":"14.17","t":"Kacha Dev Bakulbhai"},{"x":"25.16","t":"17.5"}]
ROW 0: [{"x":"5.61","t":"23010101181"},{"x":"11.59","t":"683"},{"x":"14.17","t":"Padsumbiya Darshan Rajeshbhai"},{"x":"25.40","t":"20"}]
ROW 1: [{"x":"5.61","t":"23010101182"},{"x":"11.59","t":"684"},{"x":"14.17","t":"Padsumbiya Nandani Dharmendrabhai"},{"x":"25.16","t":"12.5"}]
ROW 2: [{"x":"5.61","t":"23010101183"},{"x":"11.59","t":"685"},{"x":"14.17","t":"Pambhar Meet Nikunjbhai"},{"x":"25.57","t":"5"}]
ROW 3: [{"x":"5.61","t":"23010101184"},{"x":"11.59","t":"686"},{"x":"14.17","t":"Malay Mansukh Panara"},{"x":"25.16","t":"12.5"}]
ROW 4: [{"x":"5.61","t":"23010101189"},{"x":"11.59","t":"687"},{"x":"14.17","t":"Parmar Harsh Hareshbhai"},{"x":"25.40","t":"30"}]
ROW 5: [{"x":"5.61","t":"23010101195"},{"x":"11.59","t":"688"},{"x":"14.17","t":"Parmar Sahil Nilesh"},{"x":"25.16","t":"22.5"}]
ROW 6: [{"x":"5.61","t":"23010101199"},{"x":"11.59","t":"689"},{"x":"14.17","t":"Patel Ayushi Samitbhai"},{"x":"25.32","t":"2.5"}]
ROW 7: [{"x":"5.61","t":"23010101200"},{"x":"11.59","t":"690"},{"x":"14.17","t":"Patel Balkrushna Manishbhai"},{"x":"25.57","t":"5"}]
ROW 8: [{"x":"5.61","t":"23010101201"},{"x":"11.59","t":"691"},{"x":"14.17","t":"Jay Patel"},{"x":"25.16","t":"17.5"}]
ROW 9: [{"x":"5.61","t":"23010101203"},{"x":"11.59","t":"692"},{"x":"14.17","t":"Patel Krishkumar Bharatbhai"},{"x":"25.32","t":"2.5"}]
ROW 10: [{"x":"5.61","t":"23010101206"},{"x":"11.59","t":"693"},{"x":"14.17","t":"Patoliya Yash Chandubhai"},{"x":"25.40","t":"25"}]
ROW 11: [{"x":"5.61","t":"23010101215"},{"x":"11.59","t":"694"},{"x":"14.17","t":"Rabadiya Raj Mansukhbhai"},{"x":"25.40","t":"20"}]
ROW 12: [{"x":"5.61","t":"23010101220"},{"x":"11.59","t":"695"},{"x":"14.17","t":"Ramani Yasha Bhaveshbhai"},{"x":"25.16","t":"17.5"}]
ROW 13: [{"x":"5.61","t":"23010101223"},{"x":"11.59","t":"696"},{"x":"14.17","t":"Ranipa Vraj Bharatbhai"},{"x":"25.40","t":"15"}]
ROW 14: [{"x":"5.61","t":"23010101231"},{"x":"11.59","t":"697"},{"x":"14.17","t":"Ruparelia Drashti Dharmesh"},{"x":"25.40","t":"15"}]
ROW 15: [{"x":"5.61","t":"23010101242"},{"x":"11.59","t":"698"},{"x":"14.17","t":"Sapariya Niyati Ketanbhai"},{"x":"25.57","t":"0"},{"x":"27.62","t":"Non Placement"}]
ROW 16: [{"x":"5.61","t":"23010101251"},{"x":"11.59","t":"699"},{"x":"14.17","t":"Sherasiya Mohmadayaz Ismail"},{"x":"25.40","t":"10"}]
ROW 17: [{"x":"5.61","t":"23010101256"},{"x":"11.59","t":"700"},{"x":"14.17","t":"Solanki Harshil Shaileshbhai"},{"x":"25.16","t":"17.5"}]
ROW 18: [{"x":"5.61","t":"23010101262"},{"x":"11.59","t":"701"},{"x":"14.17","t":"Kashvi Chandrakant Suvagiya"},{"x":"25.57","t":"0"},{"x":"28.70","t":"Absent"}]
ROW 19: [{"x":"5.61","t":"23010101265"},{"x":"11.59","t":"702"},{"x":"14.17","t":"Tank Hemali Sanjaybhai"},{"x":"25.16","t":"17.5"}]
ROW 20: [{"x":"5.61","t":"23010101266"},{"x":"11.59","t":"703"},{"x":"14.17","t":"Tanwani Kirti Jagdish"},{"x":"25.40","t":"20"}]
ROW 21: [{"x":"5.61","t":"23010101267"},{"x":"11.59","t":"704"},{"x":"14.17","t":"Taraviya Nency Rameshbhai"},{"x":"25.57","t":"0"},{"x":"28.70","t":"Absent"}]
ROW 22: [{"x":"5.61","t":"23010101269"},{"x":"11.59","t":"705"},{"x":"14.17","t":"Thakkar Zeel Kiritkumar"},{"x":"25.16","t":"22.5"}]
ROW 23: [{"x":"5.61","t":"23010101270"},{"x":"11.59","t":"706"},{"x":"14.17","t":"Thesia Hearshraj Jayeshbhai"},{"x":"25.40","t":"15"}]
ROW 24: [{"x":"5.61","t":"23010101272"},{"x":"11.59","t":"707"},{"x":"14.17","t":"Thummar Jainil Sanjaybhai"},{"x":"25.40","t":"25"}]
ROW 25: [{"x":"5.61","t":"23010101275"},{"x":"11.59","t":"708"},{"x":"14.17","t":"Bhoomi Tulsiyani"},{"x":"25.16","t":"17.5"}]
ROW 26: [{"x":"5.61","t":"23010101281"},{"x":"11.59","t":"709"},{"x":"14.17","t":"Vadaviya Parth Kishorbhai"},{"x":"25.40","t":"15"}]
ROW 27: [{"x":"5.61","t":"23010101285"},{"x":"11.59","t":"710"},{"x":"14.17","t":"Vaghamashi Deep Rajeshbhai"},{"x":"25.40","t":"15"}]
ROW 28: [{"x":"5.61","t":"23010101286"},{"x":"11.59","t":"711"},{"x":"14.17","t":"Vaghasia Nirav Mansukhbhai"},{"x":"25.40","t":"20"}]
ROW 29: [{"x":"5.61","t":"23010101290"},{"x":"11.59","t":"712"},{"x":"14.17","t":"Valera Dhruvi Dipesh"},{"x":"25.40","t":"20"}]
ROW 0: [{"x":"5.61","t":"23010101245"},{"x":"11.59","t":"733"},{"x":"14.17","t":"Sata Aayushi Mital"},{"x":"25.16","t":"27.5"}]
ROW 1: [{"x":"5.61","t":"23010101283"},{"x":"11.59","t":"734"},{"x":"14.17","t":"Vadukar Jigar Jayeshbhai"},{"x":"25.40","t":"25"}]
ROW 2: [{"x":"5.61","t":"23010101287"},{"x":"11.59","t":"735"},{"x":"14.17","t":"Vaghasiya Birva Bipinbhai"},{"x":"25.40","t":"25"}]
ROW 3: [{"x":"5.61","t":"23010101309"},{"x":"11.59","t":"736"},{"x":"14.17","t":"Satyajitsinh Jitendrasinh Zala"},{"x":"25.40","t":"15"}]
ROW 4: [{"x":"5.61","t":"23010101312"},{"x":"11.59","t":"737"},{"x":"14.17","t":"Zalavadiya Priya Pareshbhai"},{"x":"25.40","t":"10"}]
ROW 5: [{"x":"5.61","t":"23010101417"},{"x":"11.59","t":"738"},{"x":"14.17","t":"Kansagra Kevalkumar Chetanbhai"},{"x":"25.57","t":"0"},{"x":"27.62","t":"Non Placement"}]
ROW 6: [{"x":"5.61","t":"23031701041"},{"x":"11.59","t":"739"},{"x":"14.17","t":"Piparva Keshvi Vimalbhai"},{"x":"25.57","t":"0"},{"x":"27.62","t":"Non Placement"}]
ROW 7: [{"x":"5.61","t":"24010101648"},{"x":"11.59","t":"740"},{"x":"14.17","t":"Kava Payal Rajnibhai"},{"x":"25.40","t":"10"}]
ROW 8: [{"x":"5.61","t":"24010101657"},{"x":"11.59","t":"741"},{"x":"14.17","t":"Lo Khushboo Amrutlal"},{"x":"25.16","t":"22.5"}]
ROW 9: [{"x":"5.61","t":"24010101686"},{"x":"11.59","t":"742"},{"x":"14.17","t":"Shekhat Tejasvi Bharatbhai"},{"x":"25.40","t":"20"}]
ROW 10: [{"x":"5.61","t":"23010101021"},{"x":"11.59","t":"743"},{"x":"14.17","t":"Bhalodiya Tanisha Pankajbhai"},{"x":"25.40","t":"25"}]
ROW 11: [{"x":"5.61","t":"23010101056"},{"x":"11.59","t":"744"},{"x":"14.17","t":"Dedakiya Raj Sanjaybhai"},{"x":"25.32","t":"2.5"}]
ROW 12: [{"x":"5.61","t":"23010101061"},{"x":"11.59","t":"745"},{"x":"14.17","t":"Dhameliya Yash Vipulbhai"},{"x":"25.40","t":"10"}]
ROW 13: [{"x":"5.61","t":"23010101087"},{"x":"11.59","t":"746"},{"x":"14.17","t":"Gaudani Siddhi Nayanbhai"},{"x":"25.40","t":"25"}]
ROW 14: [{"x":"5.61","t":"23010101104"},{"x":"11.59","t":"747"},{"x":"14.17","t":"Jani Prem Viralbhai"},{"x":"25.40","t":"30"}]
ROW 15: [{"x":"5.61","t":"23010101121"},{"x":"11.59","t":"748"},{"x":"14.17","t":"Kakadiya Yash Vipulbhai"},{"x":"25.40","t":"25"}]
ROW 16: [{"x":"5.61","t":"23010101127"},{"x":"11.59","t":"749"},{"x":"14.17","t":"Kaneriya Drashti Mrugendrabhai"},{"x":"25.16","t":"12.5"}]
ROW 17: [{"x":"5.61","t":"23010101160"},{"x":"11.59","t":"750"},{"x":"14.17","t":"Markana Pushti Manishbhai"},{"x":"25.40","t":"25"}]
ROW 18: [{"x":"5.61","t":"23010101171"},{"x":"11.59","t":"751"},{"x":"14.17","t":"Morad Jevin Kiritbhai"},{"x":"25.16","t":"22.5"}]
ROW 19: [{"x":"5.61","t":"23010101192"},{"x":"11.59","t":"752"},{"x":"14.17","t":"Parmar Mohil Jayeshbhai"},{"x":"25.40","t":"20"}]
ROW 20: [{"x":"5.61","t":"23010101196"},{"x":"11.59","t":"753"},{"x":"14.17","t":"Parmar Vatsal Prakashbhai"},{"x":"25.57","t":"5"}]
ROW 21: [{"x":"5.61","t":"23010101216"},{"x":"11.59","t":"754"},{"x":"14.17","t":"Rabadiya Yashvi Dilipbhai"},{"x":"25.16","t":"17.5"}]
ROW 22: [{"x":"5.61","t":"23010101222"},{"x":"11.59","t":"755"},{"x":"14.17","t":"Kunj Ramoliya"},{"x":"25.16","t":"27.5"}]
ROW 23: [{"x":"5.61","t":"23010101247"},{"x":"11.59","t":"756"},{"x":"14.17","t":"Savaliya Ronit Ashokbhai"},{"x":"25.16","t":"22.5"}]
ROW 24: [{"x":"5.61","t":"23010101259"},{"x":"11.59","t":"757"},{"x":"14.17","t":"Sorathiya Harshvi Maheshbhai"},{"x":"25.40","t":"15"}]
ROW 25: [{"x":"5.61","t":"23010101282"},{"x":"11.59","t":"758"},{"x":"14.17","t":"Vadhava Sumit Naranbhai"},{"x":"25.40","t":"25"}]
ROW 26: [{"x":"5.61","t":"23010101292"},{"x":"11.59","t":"759"},{"x":"14.17","t":"Meet Jitendra Vasiyani"},{"x":"25.16","t":"27.5"}]
ROW 27: [{"x":"5.61","t":"23010101298"},{"x":"11.59","t":"760"},{"x":"14.17","t":"Vekariya Raj Kishorbhai"},{"x":"25.16","t":"17.5"}]
ROW 28: [{"x":"5.61","t":"23031701006"},{"x":"11.59","t":"761"},{"x":"14.17","t":"Bhalodi Jeet Pareshbhai"},{"x":"25.16","t":"22.5"}]
ROW 29: [{"x":"5.61","t":"23031701008"},{"x":"11.59","t":"762"},{"x":"14.17","t":"Bhanderi Viraj Narendrabhai"},{"x":"25.40","t":"20"}]
